IRIDIUM 144             
1 43249U 18030A   24090.19485472  .00000024  00000+0  13407-5 0  9994
2 43249  86.3911 268.4836 0002162  90.0520 270.0924 14.34217340314209
IRIDIUM 149             
1 43250U 18030B   24089.99189116 -.00000045  00000+0 -23259-4 0  9998
2 43250  86.3911 268.5448 0001935  86.7506 273.3911 14.34217767314175
IRIDIUM 157             
1 43251U 18030C   24089.94115049  .00000207  00000+0  66808-4 0  9993
2 43251  86.3913 268.6010 0001890  97.2285 262.9125 14.34217675314141
IRIDIUM 140             
1 43252U 18030D   24089.96017576  .00000214  00000+0  69197-4 0  9994
2 43252  86.3914 268.6077 0002387  87.6960 272.4509 14.34218293314207
IRIDIUM 145             
1 43253U 18030E   24090.01726354  .00000043  00000+0  81664-5 0  9998
2 43253  86.3914 268.5576 0002203  83.2447 276.9000 14.34216307314142
IRIDIUM 146             
1 43254U 18030F   24089.92846556  .00000080  00000+0  21648-4 0  9990
2 43254  86.3913 268.6100 0002138  83.2526 276.8912 14.34216560314143
IRIDIUM 148             
1 43255U 18030G   24090.03629029 -.00000177  00000+0 -70333-4 0  9993
2 43255  86.3913 268.5957 0001730  84.3097 275.8296 14.34215818314201
IRIDIUM 142             
1 43256U 18030H   24089.93480827 -.00000123  00000+0 -50953-4 0  9999
2 43256  86.3912 268.5566 0001990  84.3763 275.7660 14.34216824314140
